     2.100          NAVIGATION                              RINEX VERSION / TYPE
fic2rin                                 12/22/2016 00:11:22 PGM / RUN BY / DATE
                                                            END OF HEADER
 9 16 12 21 20  0  0.0  .268135685474D-03  .738964445191D-11  .000000000000D+00
     .800000000000D+02  .505312500000D+02  .480698594455D-08 -.289265253173D+01
     .267848372459D-05  .830949516967D-03  .906176865101D-05  .515372594070D+04
     .331200000000D+06  .633299350739D-07  .244418277331D+01  .260770320892D-07
     .954069695027D+00  .202125000000D+03  .172189836590D+01 -.814569644381D-08
     .169649923743D-09  .100000000000D+01  .192800000000D+04  .000000000000D+00
     .240000000000D+01  .000000000000D+00  .139698386192D-08  .800000000000D+02
     .324006000000D+06  .400000000000D+01
11 16 12 21 20  0  0.0 -.670901499689D-03  .295585778076D-11  .000000000000D+00
     .610000000000D+02 -.890625000000D+01  .623490256586D-08  .443279091005D+00
    -.551342964172D-06  .166810658993D-01  .538490712643D-05  .515368675613D+04
     .331200000000D+06 -.201165676117D-06 -.270038248863D-01 -.154599547386D-06
     .899337830585D+00  .245875000000D+03  .160740943149D+01 -.928181519629D-08
     .175007289756D-09  .100000000000D+01  .192800000000D+04  .000000000000D+00
     .240000000000D+01  .000000000000D+00 -.121071934700D-07  .610000000000D+02
     .324006000000D+06  .400000000000D+01
12 16 12 21 20  0  0.0  .389326829463D-03 -.113686837722D-12  .000000000000D+00
     .440000000000D+02 -.179062500000D+02  .385980363346D-08 -.203655659487D+00
    -.970438122749D-06  .618307385594D-02  .740401446819D-05  .515361449814D+04
     .331200000000D+06  .745058059692D-08 -.168001909259D+01  .968575477600D-07
     .989702002387D+00  .251875000000D+03  .780306936379D+00 -.789997192268D-08
    -.213580325049D-09  .100000000000D+01  .192800000000D+04  .000000000000D+00
     .240000000000D+01  .000000000000D+00 -.125728547573D-07  .440000000000D+02
     .324006000000D+06  .400000000000D+01
13 16 12 21 20  0  0.0 -.611562281847D-04 -.193267624127D-11  .000000000000D+00
     .640000000000D+02  .553125000000D+02  .441839832974D-08  .142771761655D+01
     .287778675556D-05  .406321487390D-02  .865571200848D-05  .515368879700D+04
     .331200000000D+06  .111758708954D-07  .256801268543D+01 -.109896063805D-06
     .970365331154D+00  .217125000000D+03  .186581617085D+01 -.790747223510D-08
     .115361948145D-09  .100000000000D+01  .192800000000D+04  .000000000000D+00
     .240000000000D+01  .000000000000D+00 -.111758708954D-07  .640000000000D+02
     .324006000000D+06  .400000000000D+01
14 16 12 21 20  0  0.0 -.505680218339D-04 -.170530256582D-11  .000000000000D+00
     .530000000000D+02  .618125000000D+02  .449483008486D-08  .275557399023D+01
     .315532088280D-05  .863107014447D-02  .823289155960D-05  .515361221123D+04
     .331200000000D+06  .800937414169D-07  .252962062261D+01 -.670552253723D-07
     .962843142442D+00  .219843750000D+03 -.194884109769D+01 -.785246994404D-08
     .996470078407D-10  .100000000000D+01  .192800000000D+04  .000000000000D+00
     .240000000000D+01  .000000000000D+00 -.931322574615D-08  .530000000000D+02
     .324006000000D+06  .400000000000D+01
15 16 12 21 20  0  0.0 -.338155310601D-03 -.113686837722D-11  .000000000000D+00
     .420000000000D+02  .451250000000D+02  .528950604344D-08  .236452931234D+01
     .233575701714D-05  .896321190521D-02  .893510878086D-05  .515372283936D+04
     .331200000000D+06 -.206753611565D-06  .238648689787D+01 -.124797224998D-06
     .929689556662D+00  .191750000000D+03  .550767456235D+00 -.826320133836D-08
     .892894335490D-10  .100000000000D+01  .192800000000D+04  .000000000000D+00
     .240000000000D+01  .000000000000D+00 -.107102096081D-07  .420000000000D+02
     .324006000000D+06  .400000000000D+01
17 16 12 21 20  0  0.0 -.196454115212D-03  .909494701773D-12  .000000000000D+00
     .115000000000D+03 -.396875000000D+01  .390337687703D-08  .307929223764D+01
    -.139698386192D-06  .115726329386D-01  .789202749729D-05  .515355527687D+04
     .331200000000D+06  .117346644402D-06 -.641745995114D+00 -.134110450745D-06
     .978664648282D+00  .233656250000D+03 -.189142323520D+01 -.763388941071D-08
     .280011663610D-09  .100000000000D+01  .192800000000D+04  .000000000000D+00
     .240000000000D+01  .000000000000D+00 -.107102096081D-07  .115000000000D+03
     .324006000000D+06  .400000000000D+01
18 16 12 21 20  0  0.0  .585834030062D-03  .295585778076D-11  .000000000000D+00
     .140000000000D+02 -.231250000000D+02  .536522348309D-08 -.160011777233D+01
    -.961124897003D-06  .173572120257D-01  .850483775139D-05  .515373229218D+04
     .331200000000D+06  .314787030220D-06  .136606369042D+01  .339001417160D-06
     .924905283503D+00  .191843750000D+03 -.184396529349D+01 -.826927301984D-08
    -.682171272315D-10  .100000000000D+01  .192800000000D+04  .000000000000D+00
     .240000000000D+01  .000000000000D+00 -.111758708954D-07  .140000000000D+02
     .324006000000D+06  .400000000000D+01
19 16 12 21 20  0  0.0 -.517569482327D-03  .795807864051D-12  .000000000000D+00
     .370000000000D+02 -.140625000000D+01  .409695636896D-08 -.137449653101D-01
     .689178705215D-07  .102235891391D-01  .788830220699D-05  .515364138794D+04
     .331200000000D+06 -.186264514923D-07 -.593527050738D+00  .160187482834D-06
     .975874750860D+00  .237500000000D+03  .898814729116D+00 -.803926343902D-08
     .298583865788D-09  .100000000000D+01  .192800000000D+04  .000000000000D+00
     .240000000000D+01  .000000000000D+00 -.149011611938D-07  .370000000000D+02
     .324006000000D+06  .400000000000D+01
20 16 12 21 20  0  0.0  .451849307865D-03  .181898940355D-11  .000000000000D+00
     .900000000000D+01 -.379062500000D+02  .537879547699D-08  .226918027206D+01
    -.202469527721D-05  .474985013716D-02  .833719968796D-05  .515361562538D+04
     .331200000000D+06  .223517417908D-07  .131450799083D+01 -.465661287308D-07
     .926242595436D+00  .200687500000D+03  .151644753184D+01 -.833677583161D-08
    -.100361323309D-09  .100000000000D+01  .192800000000D+04  .000000000000D+00
     .240000000000D+01  .000000000000D+00 -.838190317154D-08  .900000000000D+01
     .324006000000D+06  .400000000000D+01
21 16 12 21 20  0  0.0 -.528041273355D-03  .125055521494D-11  .000000000000D+00
     .530000000000D+02 -.231562500000D+02  .534665128092D-08 -.677836845368D+00
    -.962987542152D-06  .235680708429D-01  .598281621933D-05  .515376648140D+04
     .331200000000D+06 -.264495611191D-06  .324928224028D+00  .238418579102D-06
     .938450523923D+00  .258531250000D+03 -.173133568115D+01 -.891787146514D-08
     .220366321999D-09  .100000000000D+01  .192800000000D+04  .000000000000D+00
     .485000000000D+01  .000000000000D+00 -.977888703346D-08  .530000000000D+02
     .324006000000D+06  .400000000000D+01
22 16 12 21 20  0  0.0  .155271962285D-03 -.111413100967D-10  .000000000000D+00
     .104000000000D+03 -.377187500000D+02  .542344019377D-08  .262825115346D+01
    -.203214585781D-05  .729690107983D-02  .933185219765D-05  .515364117050D+04
     .331200000000D+06  .108033418655D-06  .136625938351D+01 -.707805156708D-07
     .922884752254D+00  .180687500000D+03 -.183198947159D+01 -.828105922507D-08
    -.126790995640D-09  .100000000000D+01  .192800000000D+04  .000000000000D+00
     .340000000000D+01  .000000000000D+00 -.176951289177D-07  .104000000000D+03
     .324006000000D+06  .400000000000D+01
23 16 12 21 20  0  0.0 -.200414098799D-03 -.113686837722D-11  .000000000000D+00
     .110000000000D+02  .576875000000D+02  .506021077809D-08  .193414154323D+01
     .298395752907D-05  .111401859904D-01  .920332968235D-05  .515356831932D+04
     .331200000000D+06 -.264495611191D-06  .244746660162D+01  .223517417908D-07
     .944965085383D+00  .197062500000D+03 -.251910099668D+01 -.828427364468D-08
     .143934566881D-09  .100000000000D+01  .192800000000D+04  .000000000000D+00
     .240000000000D+01  .000000000000D+00 -.200234353542D-07  .110000000000D+02
     .324006000000D+06  .400000000000D+01
24 16 12 21 20  0  0.0 -.278777442873D-04 -.568434188608D-12  .000000000000D+00
     .960000000000D+02  .336250000000D+02  .509949812885D-08  .129855223300D+01
     .188499689102D-05  .522719079163D-02  .498630106449D-05  .515371275711D+04
     .331200000000D+06  .670552253723D-07 -.281159198056D+01  .819563865662D-07
     .947418072771D+00  .275031250000D+03  .415818251974D+00 -.851785480284D-08
    -.186436337250D-09  .100000000000D+01  .192800000000D+04  .000000000000D+00
     .340000000000D+01  .000000000000D+00  .232830643654D-08  .960000000000D+02
     .324006000000D+06  .400000000000D+01
25 16 12 21 20  0  0.0 -.303843058646D-03 -.682121026330D-11  .000000000000D+00
     .770000000000D+02 -.206250000000D+02  .409624205349D-08 -.742047162317D+00
    -.118091702461D-05  .583818310406D-02  .718608498573D-05  .515365990639D+04
     .331200000000D+06  .558793544769D-07 -.173343135372D+01  .141561031342D-06
     .977767578139D+00  .249843750000D+03  .752587027722D+00 -.799319009131D-08
    -.271797035723D-09  .100000000000D+01  .192800000000D+04  .000000000000D+00
     .240000000000D+01  .000000000000D+00  .558793544769D-08  .770000000000D+02
     .324006000000D+06  .400000000000D+01
26 16 12 21 20  0  0.0 -.512595288455D-03 -.284217094304D-11  .000000000000D+00
     .800000000000D+02 -.180937500000D+02  .443482758551D-08 -.109964221100D+01
    -.946223735809D-06  .143114780076D-02  .762008130550D-05  .515362860489D+04
     .331200000000D+06 -.111758708954D-07 -.174608806451D+01 -.242143869400D-07
     .959637069696D+00  .233875000000D+03 -.180482451944D+00 -.807962226298D-08
    -.238938524177D-09  .100000000000D+01  .192800000000D+04  .000000000000D+00
     .240000000000D+01  .000000000000D+00  .745058059692D-08  .800000000000D+02
     .324006000000D+06  .400000000000D+01
